[
    {
        "Altitude(m)": 617710.635522361,
        "Argument of Periapsis(deg)": 0.0,
        "Eccentricity": 0.0,
        "Inclination(deg)": 60.0,
        "Latitude(deg)": -41.10264893818747,
        "Longitude(deg)": 134.9666034366068,
        "Mean Anomaly(deg)": -49.09089999999994,
        "RAAN(deg)": 265.0,
        "Satellite Name": "Test1 1185",
        "Satellite Number": 1185,
        "Semi-Major Axis(m)": 6980739.136638005,
        "Time(s)": 0
    },
    {
        "Altitude(m)": 617517.9341235408,
        "Argument of Periapsis(deg)": 0.00010418945913296404,
        "Eccentricity": 0.0,
        "Inclination(deg)": 60.0,
        "Latitude(deg)": -40.636856158028934,
        "Longitude(deg)": 135.46339739501542,
        "Mean Anomaly(deg)": -48.470793854538094,
        "RAAN(deg)": 264.99957995086027,
        "Satellite Name": "Test1 1185",
        "Satellite Number": 1185,
        "Semi-Major Axis(m)": 6980739.136638005,
        "Time(s)": 10
    }
]